[{"OBJECT_NAME":"STARLINK-34753","OBJECT_ID":"2025-158Q","EPOCH":"2026-03-09T12:46:56.989056","MEAN_MOTION":15.05632043,"ECCENTRICITY":0.00024659,"INCLINATION":97.6014,"RA_OF_ASC_NODE":293.9507,"ARG_OF_PERICENTER":87.4876,"MEAN_ANOMALY":272.6633,"EPHEMERIS_TYPE":0,"CLASSIFICATION_TYPE":"U","NORAD_CAT_ID":64946,"ELEMENT_SET_NO":999,"REV_AT_EPOCH":3533,"BSTAR":0.00036344434,"MEAN_MOTION_DOT":5.185e-5,"MEAN_MOTION_DDOT":0},{"OBJECT_NAME":"CZ-2C DEB","OBJECT_ID":"2009-061C","EPOCH":"2026-03-09T15:20:14.637120","MEAN_MOTION":14.99171478,"ECCENTRICITY":0.0032615,"INCLINATION":97.8461,"RA_OF_ASC_NODE":101.0533,"ARG_OF_PERICENTER":313.5449,"MEAN_ANOMALY":164.4427,"EPHEMERIS_TYPE":0,"CLASSIFICATION_TYPE":"U","NORAD_CAT_ID":36090,"ELEMENT_SET_NO":999,"REV_AT_EPOCH":86976,"BSTAR":0.0014405,"MEAN_MOTION_DOT":0.00017697,"MEAN_MOTION_DDOT":0}]
